NORAD_CAT_ID,OBJECT_NAME,OBJECT_TYPE,EPOCH,MEAN_MOTION,ECCENTRICITY,INCLINATION,RA_OF_ASC_NODE,ARG_OF_PERICENTER,MEAN_ANOMALY,BSTAR,MEAN_MOTION_DOT,MEAN_MOTION_DDOT,TLE_LINE0,TLE_LINE1,TLE_LINE2,SEMIMAJOR_AXIS,PERIOD,APOGEE,PERIGEE,DECAYED
54005.0,STARLINK-5135,PAYLOAD,2022-12-29 02:48:32,15.08841759,0.0001478,53.2191,50.7923,62.5106,297.6036,4.6319e-05,4.49e-06,0.0,0 STARLINK-5135,1 54005U 22125AT  22363.11703891  .00000449  00000-0  46319-4 0  9996,2 54005  53.2191  50.7923 0001478  62.5106 297.6036 15.08841759 13402,6917.875,95.437,540.762,538.7180000000002,0.0
54005.0,STARLINK-5135,PAYLOAD,2022-12-29 04:23:54,15.08842056,0.0001416,53.2196,50.4958,62.0685,298.0451,-1.8687e-05,-5.85e-06,0.0,0 STARLINK-5135,1 54005U 22125AT  22363.18327444 -.00000585  00000-0 -18687-4 0  9999,2 54005  53.2196  50.4958 0001416  62.0685 298.0451 15.08842056 13363,6917.874,95.437,540.719,538.76,0.0
54005.0,STARLINK-5135,PAYLOAD,2022-12-30 02:39:21,15.08821752,0.000124,53.2185,46.33,65.2483,294.8638,-0.00012438,-2.266e-05,0.0,0 STARLINK-5135,1 54005U 22125AT  22364.11066073 -.00002266  00000-0 -12438-3 0  9996,2 54005  53.2185  46.3300 0001240  65.2483 294.8638 15.08821752 13554,6917.936,95.439,540.659,538.943,0.0
54005.0,STARLINK-5135,PAYLOAD,2022-12-30 10:36:14,15.08841193,0.0001361999999999,53.219,44.8436,65.8286,294.2848,0.00023814,3.504e-05,0.0,0 STARLINK-5135,1 54005U 22125AT  22364.44183956  .00003504  00000-0  23814-3 0  9996,2 54005  53.2190  44.8436 0001362  65.8286 294.2848 15.08841193 13609,6917.877,95.437,540.684,538.8,0.0
54005.0,STARLINK-5135,PAYLOAD,2022-12-30 20:08:32,15.08852166,0.0001283,53.2203,43.059,100.8614,259.2523,0.00034547,5.216e-05,0.0,0 STARLINK-5135,1 54005U 22125AT  22364.83926928  .00005216  00000-0  34547-3 0  9990,2 54005  53.2203  43.0590 0001283 100.8614 259.2523 15.08852166 13662,6917.843000000003,95.437,540.596,538.821,0.0
54005.0,STARLINK-5135,PAYLOAD,2022-12-31 12:02:24,15.0884922,0.0001322,53.2195,40.0888,57.6641,302.4479,0.00033658,5.074e-05,0.0,0 STARLINK-5135,1 54005U 22125AT  22365.50166946  .00005074  00000-0  33658-3 0  9995,2 54005  53.2195  40.0888 0001322  57.6641 302.4479 15.08849220 13716,6917.852,95.437,540.632,538.803,0.0
54005.0,STARLINK-5135,PAYLOAD,2022-12-31 19:59:20,15.08846961,0.0001588999999999,53.2182,38.6021,59.8655,300.2495,0.00018447,2.65e-05,0.0,0 STARLINK-5135,1 54005U 22125AT  22365.83287495  .00002650  00000-0  18447-3 0  9990,2 54005  53.2182  38.6021 0001589  59.8655 300.2495 15.08846961 13766,6917.859,95.437,540.823,538.625,0.0
54005.0,STARLINK-5135,PAYLOAD,2023-01-01 11:53:12,15.08837284,0.0001328,53.2184,35.6284,51.1445,308.9665,-7.3068e-05,-1.4499999999999992e-05,0.0,0 STARLINK-5135,1 54005U 22125AT  23001.49528623 -.00001450  00000-0 -73068-4 0  9991,2 54005  53.2184  35.6284 0001328  51.1445 308.9665 15.08837284 13918,6917.889,95.438,540.672,538.835,0.0
54005.0,STARLINK-5135,PAYLOAD,2023-01-02 02:11:41,15.0883219,0.0001546,53.2188,32.9531,55.0745,305.0392,-0.00026392,-4.485e-05,0.0,0 STARLINK-5135,1 54005U 22125AT  23002.09145713 -.00004485  00000-0 -26392-3 0  9991,2 54005  53.2188  32.9531 0001546  55.0745 305.0392 15.08832190 14002,6917.904,95.438,540.839,538.7,0.0
54005.0,STARLINK-5135,PAYLOAD,2023-01-02 06:57:50,15.08838517,0.0001595,53.2189,32.0609,58.0415,302.0732,-0.00014841,-2.649e-05,0.0,0 STARLINK-5135,1 54005U 22125AT  23002.29017032 -.00002649  00000-0 -14841-3 0  9991,2 54005  53.2189  32.0609 0001595  58.0415 302.0732 15.08838517 14038,6917.885,95.438,540.8530000000002,538.6469999999998,0.0
54005.0,STARLINK-5135,PAYLOAD,2023-01-02 08:33:13,15.08840817,0.0001536,53.2189,31.7631,59.8505,300.2639,-0.00011331,-2.091e-05,0.0,0 STARLINK-5135,1 54005U 22125AT  23002.35640763 -.00002091  00000-0 -11331-3 0  9993,2 54005  53.2189  31.7631 0001536  59.8505 300.2639 15.08840817 13999,6917.878000000002,95.438,540.805,538.68,0.0
54005.0,STARLINK-5135,PAYLOAD,2023-01-03 08:24:00,15.08837023,0.0001449,53.2188,27.3014,62.8914,297.2226,0.00012852,1.758e-05,0.0,0 STARLINK-5135,1 54005U 22125AT  23003.35000640  .00001758  00000-0  12852-3 0  9994,2 54005  53.2188  27.3014 0001449  62.8914 297.2226 15.08837023 14190,6917.889,95.438,540.757,538.752,0.0
54005.0,STARLINK-5135,PAYLOAD,2023-01-03 17:56:16,15.0886399,0.0001376999999999,53.2195,25.5173,61.8929,298.2203,0.00045083,6.899e-05,0.0,0 STARLINK-5135,1 54005U 22125AT  23003.74741751  .00006899  00000-0  45083-3 0  9995,2 54005  53.2195  25.5173 0001377  61.8929 298.2203 15.08863990 14254,6917.807,95.436,540.625,538.719,0.0
54005.0,STARLINK-5135,PAYLOAD,2023-01-04 01:53:14,15.08843605,0.0001916,53.2196,24.03,62.1969,297.9217,0.0001247,1.697e-05,0.0,0 STARLINK-5135,1 54005U 22125AT  23004.07864075  .00001697  00000-0  12470-3 0  9992,2 54005  53.2196  24.0300 0001916  62.1969 297.9217 15.08843605 14306,6917.869000000002,95.437,541.06,538.409,0.0
54005.0,STARLINK-5135,PAYLOAD,2023-01-04 08:14:47,15.08837279,0.0001575,53.2188,22.8404,52.4081,307.7054,6.923e-05,8.14e-06,0.0,0 STARLINK-5135,1 54005U 22125AT  23004.34360679  .00000814  00000-0  69230-4 0  9990,2 54005  53.2188  22.8404 0001575  52.4081 307.7054 15.08837279 14349,6917.889,95.438,540.8430000000002,538.664,0.0
54005.0,STARLINK-5135,PAYLOAD,2023-01-04 17:47:05,15.08851069,0.0001538,53.2193,21.0565,55.5234,304.5904,0.00015638,2.202e-05,0.0,0 STARLINK-5135,1 54005U 22125AT  23004.74103484  .00002202  00000-0  15638-3 0  9998,2 54005  53.2193  21.0565 0001538  55.5234 304.5904 15.08851069 14406,6917.847,95.437,540.776,538.648,0.0
54005.0,STARLINK-5135,PAYLOAD,2023-01-05 01:44:00,15.0886253,0.0001583,53.2184,19.5681,47.1593,312.9532,0.00021187,3.088e-05,0.0,0 STARLINK-5135,1 54005U 22125AT  23005.07222460  .00003088  00000-0  21187-3 0  9990,2 54005  53.2184  19.5681 0001583  47.1593 312.9532 15.08862530 14452,6917.812,95.436,540.7719999999998,538.581,0.0
54005.0,STARLINK-5135,PAYLOAD,2023-01-05 17:37:51,15.08851971,0.0002012,53.2183,16.5953,53.9628,306.155,-2.7031e-05,-7.19e-06,0.0,0 STARLINK-5135,1 54005U 22125AT  23005.73462410 -.00000719  00000-0 -27031-4 0  9999,2 54005  53.2183  16.5953 0002012  53.9628 306.1550 15.08851971 14500,6917.844,95.437,541.101,538.317,0.0
54005.0,STARLINK-5135,PAYLOAD,2023-01-06 23:50:12,15.08814737,0.0001511,53.2154,10.9464,43.7736,316.3375,-0.00038324,-6.378e-05,0.0,0 STARLINK-5135,1 54005U 22125AT  23006.99320483 -.00006378  00000-0 -38324-3 0  9994,2 54005  53.2154  10.9464 0001511  43.7736 316.3375 15.08814737 14746,6917.958000000001,95.439,540.868,538.7769999999998,0.0
54005.0,STARLINK-5135,PAYLOAD,2023-01-07 06:11:45,15.08828751,0.0001506999999999,53.2171,9.7578,45.8759,314.2357,-0.00014533,-2.599e-05,0.0,0 STARLINK-5135,1 54005U 22125AT  23007.25816546 -.00002599  00000-0 -14533-3 0  9991,2 54005  53.2171   9.7578 0001507  45.8759 314.2357 15.08828751 14737,6917.915,95.438,540.822,538.737,0.0
54005.0,STARLINK-5135,PAYLOAD,2023-01-07 09:22:31,15.08839953,0.0001608,53.2175,9.1629,47.6371,312.4757,-0.00018256,-3.192e-05,0.0,0 STARLINK-5135,1 54005U 22125AT  23007.39064077 -.00003192  00000-0 -18256-3 0  9996,2 54005  53.2175   9.1629 0001608  47.6371 312.4757 15.08839953 14802,6917.880999999999,95.438,540.8580000000002,538.633,0.0
54005.0,STARLINK-5135,PAYLOAD,2023-01-07 17:19:27,15.08834927,0.0001746,53.2176,7.6761,45.8613,314.2523,0.00036874,5.585e-05,0.0,0 STARLINK-5135,1 54005U 22125AT  23007.72184989  .00005585  00000-0  36874-3 0  9990,2 54005  53.2176   7.6761 0001746  45.8613 314.2523 15.08834927 14857,6917.896,95.438,540.969,538.553,0.0
54005.0,STARLINK-5135,PAYLOAD,2023-01-08 09:13:19,15.08853817,0.0001773,53.2172,4.7022,49.895,310.2198,0.00080066,0.00012482,0.0,0 STARLINK-5135,1 54005U 22125AT  23008.38425079  .00012482  00000-0  80066-3 0  9997,2 54005  53.2172   4.7022 0001773  49.8950 310.2198 15.08853817 14908,6917.838000000002,95.437,540.93,538.477,0.0
54005.0,STARLINK-5135,PAYLOAD,2023-01-09 01:07:11,15.08835583,0.0001489,53.2173,1.7278,60.3181,299.7959,0.00013233,1.818e-05,0.0,0 STARLINK-5135,1 54005U 22125AT  23009.04665596  .00001818  00000-0  13233-3 0  9994,2 54005  53.2173   1.7278 0001489  60.3181 299.7959 15.08835583 15050,6917.894,95.438,540.789,538.729,0.0
54005.0,STARLINK-5135,PAYLOAD,2023-01-09 05:53:20,15.0883592,0.0001543,53.2175,0.836,57.2194,302.8946,0.00024242,3.572e-05,0.0,0 STARLINK-5135,1 54005U 22125AT  23009.24537726  .00003572  00000-0  24242-3 0  9990,2 54005  53.2175   0.8360 0001543  57.2194 302.8946 15.08835920 15039,6917.893,95.438,540.825,538.69,0.0
54005.0,STARLINK-5135,PAYLOAD,2023-01-10 02:33:22,15.08831446,0.0001535,53.2174,356.9694,63.949,296.166,0.00022808,3.343e-05,0.0,0 STARLINK-5135,1 54005U 22125AT  23010.10650526  .00003343  00000-0  22808-3 0  9993,2 54005  53.2174 356.9694 0001535  63.9490 296.1660 15.08831446 15214,6917.906999999998,95.438,540.8330000000002,538.71,0.0
54005.0,STARLINK-5135,PAYLOAD,2023-01-10 10:30:17,15.08845048,0.0001501,53.2179,355.4834,66.9267,293.1883,0.00045425,6.95e-05,0.0,0 STARLINK-5135,1 54005U 22125AT  23010.43770269  .00006950  00000-0  45425-3 0  9993,2 54005  53.2179 355.4834 0001501  66.9267 293.1883 15.08845048 15269,6917.865,95.437,540.768,538.692,0.0
54005.0,STARLINK-5135,PAYLOAD,2023-01-11 03:59:32,15.08846006,0.0001368,53.2175,352.2124,77.9674,282.1472,0.00035682,5.396e-05,0.0,0 STARLINK-5135,1 54005U 22125AT  23011.16634369  .00005396  00000-0  35682-3 0  9991,2 54005  53.2175 352.2124 0001368  77.9674 282.1472 15.08846006 15376,6917.861999999999,95.437,540.673,538.781,0.0
54005.0,STARLINK-5135,PAYLOAD,2023-01-11 05:34:55,15.0885383,0.0001395999999999,53.2178,351.9159,70.8294,289.2849,0.00052245,8.04e-05,0.0,0 STARLINK-5135,1 54005U 22125AT  23011.23258175  .00008040  00000-0  52245-3 0  9999,2 54005  53.2178 351.9159 0001396  70.8294 289.2849 15.08853830 15339,6917.838000000002,95.437,540.669,538.737,0.0
